{
    "links": {
        "self": "http://www.neowsapp.com/rest/v1/neo/3747316?api_key=iIulBulltgU6a56xZRHN4H3l9WmuAYTsLGpBGhQ2"
    },
    "id": "3747316",
    "neo_reference_id": "3747316",
    "name": "(2016 EN157)",
    "designation": "2016 EN157",
    "nasa_jpl_url": "http://ssd.jpl.nasa.gov/sbdb.cgi?sstr=3747316",
    "absolute_magnitude_h": 28.0,
    "estimated_diameter": {
        "kilometers": {
            "estimated_diameter_min": 0.0066765941,
            "estimated_diameter_max": 0.0149293183
        },
        "meters": {
            "estimated_diameter_min": 6.676594135,
            "estimated_diameter_max": 14.9293183439
        },
        "miles": {
            "estimated_diameter_min": 0.004148642,
            "estimated_diameter_max": 0.0092766455
        },
        "feet": {
            "estimated_diameter_min": 21.9048371017,
            "estimated_diameter_max": 48.9807047955
        }
    },
    "is_potentially_hazardous_asteroid": false,
    "close_approach_data": [
        {
            "close_approach_date": "2016-03-09",
            "close_approach_date_full": "2016-Mar-09 18:54",
            "epoch_date_close_approach": 1457549640000,
            "relative_velocity": {
                "kilometers_per_second": "12.814785256",
                "kilometers_per_hour": "46133.2269215572",
                "miles_per_hour": "28665.3931391198"
            },
            "miss_distance": {
                "astronomical": "0.0022781006",
                "lunar": "0.8861811334",
                "kilometers": "340798.997405722",
                "miles": "211762.6774220836"
            },
            "orbiting_body": "Moon"
        },
        {
            "close_approach_date": "2016-03-10",
            "close_approach_date_full": "2016-Mar-10 02:47",
            "epoch_date_close_approach": 1457578020000,
            "relative_velocity": {
                "kilometers_per_second": "12.5631097994",
                "kilometers_per_hour": "45227.1952778281",
                "miles_per_hour": "28102.4203102705"
            },
            "miss_distance": {
                "astronomical": "0.0021565957",
                "lunar": "0.8389157273",
                "kilometers": "322622.123171159",
                "miles": "200468.0915096342"
            },
            "orbiting_body": "Earth"
        }
    ],
    "orbital_data": {
        "orbit_id": "3",
        "orbit_determination_date": "2017-04-06 08:27:26",
        "first_observation_date": "2016-03-11",
        "last_observation_date": "2016-03-15",
        "data_arc_in_days": 4,
        "observations_used": 10,
        "orbit_uncertainty": "7",
        "minimum_orbit_intersection": ".000607636",
        "jupiter_tisserand_invariant": "3.678",
        "epoch_osculation": "2459000.5",
        "eccentricity": ".5658791884824901",
        "semi_major_axis": "1.947008004009483",
        "inclination": "4.870622778479675",
        "ascending_node_longitude": "170.627111307081",
        "orbital_period": "992.3160874071752",
        "perihelion_distance": ".8452366947316839",
        "perihelion_argument": "305.5186203494898",
        "aphelion_distance": "3.048779313287282",
        "perihelion_time": "2459404.809229470700",
        "mean_anomaly": "213.3216134893437",
        "mean_motion": ".3627876284265881",
        "equinox": "J2000",
        "orbit_class": {
            "orbit_class_type": "APO",
            "orbit_class_description": "Near-Earth asteroid orbits which cross the Earth’s orbit similar to that of 1862 Apollo",
            "orbit_class_range": "a (semi-major axis) > 1.0 AU; q (perihelion) < 1.017 AU"
        }
    },
    "is_sentry_object": false
}